start=new Date('2021-10-01T00:00:00.000Z').valueOf();
sats=[{"RCS_SIZE":"LARGE","ARG_OF_PERICENTER":"100.9063","SEMIMAJOR_AXIS":"6925.360","APOAPSIS":"547.690","EPOCH":"2021-09-30T11:58:26.579136","PERIOD":"95.592","RA_OF_ASC_NODE":"314.4314","TIME_SYSTEM":"UTC","GP_ID":"185863240","CLASSIFICATION_TYPE":"U","OBJECT_ID":"2020-038T","MEAN_MOTION":"15.06396221","NORAD_CAT_ID":"45747","PERIAPSIS":"546.760","MEAN_MOTION_DDOT":"0.0000000000000","ELEMENT_SET_NO":"999","OBJECT_TYPE":"PAYLOAD","SITE":"AFETR","TLE_LINE2":"2 45747  53.0547 314.4314 0000671 100.9063 259.2002 15.06396221 72763","OBJECT_NAME":"STARLINK-1506","DECAY_DATE":null,"TLE_LINE1":"1 45747U 20038T   21273.49891874  .00001227  00000-0  10126-3 0  9990","CENTER_NAME":"EARTH","INCLINATION":"53.0547","MEAN_MOTION_DOT":"0.00001227","BSTAR":"0.00010126000000","COUNTRY_CODE":"US","ECCENTRICITY":"0.00006710","MEAN_ELEMENT_THEORY":"SGP4","EPHEMERIS_TYPE":"0","MEAN_ANOMALY":"259.2002","REF_FRAME":"TEME","LAUNCH_DATE":"2020-06-13","FILE":"3136990","REV_AT_EPOCH":"7276"},{"GP_ID":"185858273","CLASSIFICATION_TYPE":"U","RA_OF_ASC_NODE":"314.5062","TIME_SYSTEM":"UTC","RCS_SIZE":"LARGE","SEMIMAJOR_AXIS":"6925.278","ARG_OF_PERICENTER":"98.0498","EPOCH":"2021-09-30T11:37:09.961248","APOAPSIS":"547.913","PERIOD":"95.591","LAUNCH_DATE":"2020-06-13","FILE":"3136969","REV_AT_EPOCH":"7183","MEAN_ELEMENT_THEORY":"SGP4","EPHEMERIS_TYPE":"0","MEAN_ANOMALY":"262.0617","REF_FRAME":"TEME","TLE_LINE1":"1 45748U 20038U   21273.48414307  .00004486  00000-0  31966-3 0  9997","CENTER_NAME":"EARTH","DECAY_DATE":null,"INCLINATION":"53.0538","MEAN_MOTION_DOT":"0.00004486","BSTAR":"0.00031966000000","ECCENTRICITY":"0.00011120","COUNTRY_CODE":"US","OBJECT_ID":"2020-038U","MEAN_MOTION":"15.06423125","NORAD_CAT_ID":"45748","PERIAPSIS":"546.373","MEAN_MOTION_DDOT":"0.0000000000000","ELEMENT_SET_NO":"999","OBJECT_TYPE":"PAYLOAD","TLE_LINE2":"2 45748  53.0538 314.5062 0001112  98.0498 262.0617 15.06423125 71830","SITE":"AFETR","OBJECT_NAME":"STARLINK-1507"},{"MEAN_MOTION_DDOT":"0.0000000000000","OBJECT_TYPE":"PAYLOAD","ELEMENT_SET_NO":"999","TLE_LINE2":"2 45750  53.0558 293.1673 0001010  89.8820 270.2285 15.06391869 73281","SITE":"AFETR","OBJECT_NAME":"STARLINK-1391","OBJECT_ID":"2020-038W","NORAD_CAT_ID":"45750","MEAN_MOTION":"15.06391869","PERIAPSIS":"546.539","BSTAR":"0.00013337000000","ECCENTRICITY":"0.00010100","COUNTRY_CODE":"US","DECAY_DATE":null,"TLE_LINE1":"1 45750U 20038W   21273.78089907  .00001705  00000-0  13337-3 0  9990","CENTER_NAME":"EARTH","INCLINATION":"53.0558","MEAN_MOTION_DOT":"0.00001705","MEAN_ANOMALY":"270.2285","REF_FRAME":"TEME","MEAN_ELEMENT_THEORY":"SGP4","EPHEMERIS_TYPE":"0","LAUNCH_DATE":"2020-06-13","FILE":"3137322","REV_AT_EPOCH":"7328","APOAPSIS":"547.938","EPOCH":"2021-09-30T18:44:29.679648","PERIOD":"95.593","RCS_SIZE":"LARGE","ARG_OF_PERICENTER":"89.8820","SEMIMAJOR_AXIS":"6925.373","TIME_SYSTEM":"UTC","RA_OF_ASC_NODE":"293.1673","CLASSIFICATION_TYPE":"U","GP_ID":"185870642"},{"PERIAPSIS":"546.612","NORAD_CAT_ID":"45751","OBJECT_ID":"2020-038X","MEAN_MOTION":"15.06396231","TLE_LINE2":"2 45751  53.0529 294.6765 0000885  98.1335 261.9755 15.06396231 73233","SITE":"AFETR","OBJECT_NAME":"STARLINK-1464","MEAN_MOTION_DDOT":"0.0000000000000","OBJECT_TYPE":"PAYLOAD","ELEMENT_SET_NO":"999","INCLINATION":"53.0529","MEAN_MOTION_DOT":"-0.00000168","DECAY_DATE":null,"TLE_LINE1":"1 45751U 20038X   21273.44546883 -.00000168  00000-0  76235-5 0  9996","CENTER_NAME":"EARTH","COUNTRY_CODE":"US","ECCENTRICITY":"0.00008850","BSTAR":"0.00000762350000","EPHEMERIS_TYPE":"0","MEAN_ELEMENT_THEORY":"SGP4","MEAN_ANOMALY":"261.9755","REF_FRAME":"TEME","REV_AT_EPOCH":"7323","LAUNCH_DATE":"2020-06-13","FILE":"3136986","SEMIMAJOR_AXIS":"6925.360","ARG_OF_PERICENTER":"98.1335","RCS_SIZE":"LARGE","PERIOD":"95.592","APOAPSIS":"547.838","EPOCH":"2021-09-30T10:41:28.506912","RA_OF_ASC_NODE":"294.6765","TIME_SYSTEM":"UTC","CLASSIFICATION_TYPE":"U","GP_ID":"185863186"},{"MEAN_ANOMALY":"71.9342","REF_FRAME":"TEME","MEAN_ELEMENT_THEORY":"SGP4","EPHEMERIS_TYPE":"0","LAUNCH_DATE":"2020-06-13","FILE":"3136969","REV_AT_EPOCH":"7458","MEAN_MOTION_DDOT":"0.0000000000000","OBJECT_TYPE":"PAYLOAD","ELEMENT_SET_NO":"999","TLE_LINE2":"2 45752  52.9960 114.3713 0008797 288.0714  71.9342 15.66223087 74587","SITE":"AFETR","OBJECT_NAME":"STARLINK-1469","OBJECT_ID":"2020-038Y","NORAD_CAT_ID":"45752","MEAN_MOTION":"15.66223087","PERIAPSIS":"363.789","BSTAR":"0.00010125000000","ECCENTRICITY":"0.00087970","COUNTRY_CODE":"US","TLE_LINE1":"1 45752U 20038Y   21273.02328353  .00010102  00000-0  10125-3 0  9993","CENTER_NAME":"EARTH","DECAY_DATE":null,"MEAN_MOTION_DOT":"0.00010102","INCLINATION":"52.9960","CLASSIFICATION_TYPE":"U","GP_ID":"185859525","EPOCH":"2021-09-30T00:33:31.696992","APOAPSIS":"375.662","PERIOD":"91.941","RCS_SIZE":"LARGE","SEMIMAJOR_AXIS":"6747.860","ARG_OF_PERICENTER":"288.0714","TIME_SYSTEM":"UTC","RA_OF_ASC_NODE":"114.3713"},{"EPOCH":"2021-09-30T10:57:24.134976","APOAPSIS":"548.019","PERIOD":"95.592","RCS_SIZE":"LARGE","SEMIMAJOR_AXIS":"6925.366","ARG_OF_PERICENTER":"82.7662","TIME_SYSTEM":"UTC","RA_OF_ASC_NODE":"294.6236","CLASSIFICATION_TYPE":"U","GP_ID":"185858773","MEAN_MOTION_DDOT":"0.0000000000000","OBJECT_TYPE":"PAYLOAD","ELEMENT_SET_NO":"999","SITE":"AFETR","TLE_LINE2":"2 45753  53.0546 294.6236 0001138  82.7662 277.3456 15.06394453 72121","OBJECT_NAME":"STARLINK-1476","OBJECT_ID":"2020-038Z","NORAD_CAT_ID":"45753","MEAN_MOTION":"15.06394453","PERIAPSIS":"546.442","BSTAR":"0.00004978900000","ECCENTRICITY":"0.00011380","COUNTRY_CODE":"US","TLE_LINE1":"1 45753U 20038Z   21273.45652934  .00000460  00000-0  49789-4 0  9991","CENTER_NAME":"EARTH","DECAY_DATE":null,"MEAN_MOTION_DOT":"0.00000460","INCLINATION":"53.0546","MEAN_ANOMALY":"277.3456","REF_FRAME":"TEME","MEAN_ELEMENT_THEORY":"SGP4","EPHEMERIS_TYPE":"0","LAUNCH_DATE":"2020-06-13","FILE":"3136969","REV_AT_EPOCH":"7212"},{"GP_ID":"185859023","CLASSIFICATION_TYPE":"U","RA_OF_ASC_NODE":"294.6133","TIME_SYSTEM":"UTC","ARG_OF_PERICENTER":"81.1205","SEMIMAJOR_AXIS":"6925.359","RCS_SIZE":"LARGE","PERIOD":"95.592","APOAPSIS":"547.935","EPOCH":"2021-09-30T11:02:42.521568","REV_AT_EPOCH":"7212","LAUNCH_DATE":"2020-06-13","FILE":"3136969","EPHEMERIS_TYPE":"0","MEAN_ELEMENT_THEORY":"SGP4","MEAN_ANOMALY":"278.9901","REF_FRAME":"TEME","MEAN_MOTION_DOT":"0.00001708","INCLINATION":"53.0537","TLE_LINE1":"1 45754U 20038AA  21273.46021437  .00001708  00000-0  13355-3 0  9996","DECAY_DATE":null,"CENTER_NAME":"EARTH","ECCENTRICITY":"0.00010270","COUNTRY_CODE":"US","BSTAR":"0.00013355000000","PERIAPSIS":"546.513","OBJECT_ID":"2020-038AA","MEAN_MOTION":"15.06396639","NORAD_CAT_ID":"45754","TLE_LINE2":"2 45754  53.0537 294.6133 0001027  81.1205 278.9901 15.06396639 72121","SITE":"AFETR","OBJECT_NAME":"STARLINK-1477","MEAN_MOTION_DDOT":"0.0000000000000","ELEMENT_SET_NO":"999","OBJECT_TYPE":"PAYLOAD"},{"GP_ID":"185859275","CLASSIFICATION_TYPE":"U","RA_OF_ASC_NODE":"294.5307","TIME_SYSTEM":"UTC","ARG_OF_PERICENTER":"74.7920","SEMIMAJOR_AXIS":"6925.332","RCS_SIZE":"LARGE","PERIOD":"95.592","EPOCH":"2021-09-30T11:29:14.255808","APOAPSIS":"547.753","REV_AT_EPOCH":"7211","LAUNCH_DATE":"2020-06-13","FILE":"3136969","EPHEMERIS_TYPE":"0","MEAN_ELEMENT_THEORY":"SGP4","MEAN_ANOMALY":"285.3158","REF_FRAME":"TEME","MEAN_MOTION_DOT":"0.00001635","INCLINATION":"53.0536","DECAY_DATE":null,"TLE_LINE1":"1 45755U 20038AB  21273.47863722  .00001635  00000-0  12857-3 0  9994","CENTER_NAME":"EARTH","COUNTRY_CODE":"US","ECCENTRICITY":"0.00008030","BSTAR":"0.00012857000000","PERIAPSIS":"546.641","OBJECT_ID":"2020-038AB","NORAD_CAT_ID":"45755","MEAN_MOTION":"15.06405443","SITE":"AFETR","TLE_LINE2":"2 45755  53.0536 294.5307 0000803  74.7920 285.3158 15.06405443 72115","OBJECT_NAME":"STARLINK-1478","MEAN_MOTION_DDOT":"0.0000000000000","OBJECT_TYPE":"PAYLOAD","ELEMENT_SET_NO":"999"},{"RA_OF_ASC_NODE":"294.5396","TIME_SYSTEM":"UTC","SEMIMAJOR_AXIS":"6925.335","ARG_OF_PERICENTER":"71.8850","RCS_SIZE":"LARGE","PERIOD":"95.592","EPOCH":"2021-09-30T11:23:55.848480","APOAPSIS":"547.851","GP_ID":"185860025","CLASSIFICATION_TYPE":"U","INCLINATION":"53.0545","MEAN_MOTION_DOT":"0.00000062","TLE_LINE1":"1 45756U 20038AC  21273.47495195  .00000062  00000-0  23016-4 0  9993","CENTER_NAME":"EARTH","DECAY_DATE":null,"ECCENTRICITY":"0.00009400","COUNTRY_CODE":"US","BSTAR":"0.00002301600000","PERIAPSIS":"546.549","MEAN_MOTION":"15.06404346","NORAD_CAT_ID":"45756","OBJECT_ID":"2020-038AC","OBJECT_NAME":"STARLINK-1484","TLE_LINE2":"2 45756  53.0545 294.5396 0000940  71.8850 288.2242 15.06404346 72113","SITE":"AFETR","OBJECT_TYPE":"PAYLOAD","ELEMENT_SET_NO":"999","MEAN_MOTION_DDOT":"0.0000000000000","REV_AT_EPOCH":"7211","FILE":"3136969","LAUNCH_DATE":"2020-06-13","EPHEMERIS_TYPE":"0","MEAN_ELEMENT_THEORY":"SGP4","REF_FRAME":"TEME","MEAN_ANOMALY":"288.2242"},{"OBJECT_NAME":"STARLINK-1486","SITE":"AFETR","TLE_LINE2":"2 45757  53.0542 294.7588 0001428  77.4106 282.7042 15.06401113 72109","OBJECT_TYPE":"PAYLOAD","ELEMENT_SET_NO":"999","MEAN_MOTION_DDOT":"0.0000000000000","PERIAPSIS":"546.221","OBJECT_ID":"2020-038AD","MEAN_MOTION":"15.06401113","NORAD_CAT_ID":"45757","COUNTRY_CODE":"US","ECCENTRICITY":"0.00014280","BSTAR":"0.00000057327000","INCLINATION":"53.0542","MEAN_MOTION_DOT":"-0.00000273","CENTER_NAME":"EARTH","TLE_LINE1":"1 45757U 20038AD  21273.42703808 -.00000273  00000-0  57327-6 0  9991","DECAY_DATE":null,"REF_FRAME":"TEME","MEAN_ANOMALY":"282.7042","EPHEMERIS_TYPE":"0","MEAN_ELEMENT_THEORY":"SGP4","REV_AT_EPOCH":"7210","FILE":"3136969","LAUNCH_DATE":"2020-06-13","PERIOD":"95.592","APOAPSIS":"548.199","EPOCH":"2021-09-30T10:14:56.090112","ARG_OF_PERICENTER":"77.4106","SEMIMAJOR_AXIS":"6925.345","RCS_SIZE":"LARGE","TIME_SYSTEM":"UTC","RA_OF_ASC_NODE":"294.7588","GP_ID":"185858274","CLASSIFICATION_TYPE":"U"}];
